{"type":"FeatureCollection","features":[{"type":"Feature","geometry":{"type":"Point","coordinates":[-116.46698064499998,32.589741150000066]},"properties":{"mile":0}},{"type":"Feature","geometry":{"type":"Point","coordinates":[-116.50550795432044,32.60919838081724]},"properties":{"mile":5}},{"type":"Feature","geometry":{"type":"Point","coordinates":[-116.52649088006741,32.637985263170265]},"properties":{"mile":10}},{"type":"Feature","geometry":{"type":"Point","coordinates":[-116.54541609179999,32.66208801933823]},"properties":{"mile":15}},{"type":"Feature","geometry":{"type":"Point","coordinates":[-116.51356740708431,32.68962181778674]},"properties":{"mile":20}},{"type":"Feature","geometry":{"type":"Point","coordinates":[-116.48660714580573,32.72842738648195]},"properties":{"mile":25}},{"type":"Feature","geometry":{"type":"Point","coordinates":[-116.4428948630671,32.75180252339492]},"properties":{"mile":30}},{"type":"Feature","geometry":{"type":"Point","coordinates":[-116.42204118269737,32.801496103519774]},"properties":{"mile":35}},{"type":"Feature","geometry":{"type":"Point","coordinates":[-116.41731414324812,32.85621284046417]},"properties":{"mile":40}},{"type":"Feature","geometry":{"type":"Point","coordinates":[-116.43839549686146,32.89321881744678]},"properties":{"mile":45}},{"type":"Feature","geometry":{"type":"Point","coordinates":[-116.47070440425857,32.92440565956218]},"properties":{"mile":50}},{"type":"Feature","geometry":{"type":"Point","coordinates":[-116.50221405048275,32.95530436935179]},"properties":{"mile":55}},{"type":"Feature","geometry":{"type":"Point","coordinates":[-116.53385603212347,33.000083322931914]},"properties":{"mile":60}},{"type":"Feature","geometry":{"type":"Point","coordinates":[-116.52016178954517,33.03109507693011]},"properties":{"mile":65}},{"type":"Feature","geometry":{"type":"Point","coordinates":[-116.4977364273672,33.066404181484174]},"properties":{"mile":70}},{"type":"Feature","geometry":{"type":"Point","coordinates":[-116.46752743430406,33.09460349331217]},"properties":{"mile":75}},{"type":"Feature","geometry":{"type":"Point","coordinates":[-116.48577938387234,33.120626729010944]},"properties":{"mile":80}},{"type":"Feature","geometry":{"type":"Point","coordinates":[-116.50942240423927,33.146724176287066]},"properties":{"mile":85}},{"type":"Feature","geometry":{"type":"Point","coordinates":[-116.54719840155495,33.171600160330094]},"properties":{"mile":90}},{"type":"Feature","geometry":{"type":"Point","coordinates":[-116.56740315838749,33.19823511702266]},"properties":{"mile":95}},{"type":"Feature","geometry":{"type":"Point","coordinates":[-116.58777732401735,33.223579413587125]},"properties":{"mile":100}},{"type":"Feature","geometry":{"type":"Point","coordinates":[-116.62097371987068,33.2637826804322]},"properties":{"mile":105}},{"type":"Feature","geometry":{"type":"Point","coordinates":[-116.63806700471895,33.29553962648561]},"properties":{"mile":110}},{"type":"Feature","geometry":{"type":"Point","coordinates":[-116.63310930554148,33.32621441022062]},"properties":{"mile":115}},{"type":"Feature","geometry":{"type":"Point","coordinates":[-116.61314740959196,33.346800202362395]},"properties":{"mile":120}},{"type":"Feature","geometry":{"type":"Point","coordinates":[-116.59695126273057,33.38615223841232]},"properties":{"mile":125}},{"type":"Feature","geometry":{"type":"Point","coordinates":[-116.60336448488778,33.428951508687426]},"properties":{"mile":130}},{"type":"Feature","geometry":{"type":"Point","coordinates":[-116.59093408583007,33.464018986889755]},"properties":{"mile":135}},{"type":"Feature","geometry":{"type":"Point","coordinates":[-116.57035717901024,33.499630378919676]},"properties":{"mile":140}},{"type":"Feature","geometry":{"type":"Point","coordinates":[-116.58683292800852,33.535131741711055]},"properties":{"mile":145}},{"type":"Feature","geometry":{"type":"Point","coordinates":[-116.57395785249578,33.57308747480627]},"properties":{"mile":150}},{"type":"Feature","geometry":{"type":"Point","coordinates":[-116.56386601919296,33.623623306113075]},"properties":{"mile":155}},{"type":"Feature","geometry":{"type":"Point","coordinates":[-116.5841119483687,33.674751324882195]},"properties":{"mile":160}},{"type":"Feature","geometry":{"type":"Point","coordinates":[-116.6227898413418,33.71037910397078]},"properties":{"mile":165}},{"type":"Feature","geometry":{"type":"Point","coordinates":[-116.64748029148596,33.743995902514655]},"properties":{"mile":170}},{"type":"Feature","geometry":{"type":"Point","coordinates":[-116.67423416275828,33.76991389118781]},"properties":{"mile":175}},{"type":"Feature","geometry":{"type":"Point","coordinates":[-116.7057214566597,33.78842640548979]},"properties":{"mile":180}},{"type":"Feature","geometry":{"type":"Point","coordinates":[-116.71213185287633,33.82984670994815]},"properties":{"mile":185}},{"type":"Feature","geometry":{"type":"Point","coordinates":[-116.72617508651393,33.85573620403495]},"properties":{"mile":190}},{"type":"Feature","geometry":{"type":"Point","coordinates":[-116.70432603483384,33.870021294731174]},"properties":{"mile":195}},{"type":"Feature","geometry":{"type":"Point","coordinates":[-116.69898444723295,33.88465246351743]},"properties":{"mile":200}},{"type":"Feature","geometry":{"type":"Point","coordinates":[-116.68476433073776,33.91641973852917]},"properties":{"mile":205}},{"type":"Feature","geometry":{"type":"Point","coordinates":[-116.66389713900739,33.95625505117737]},"properties":{"mile":210}},{"type":"Feature","geometry":{"type":"Point","coordinates":[-116.6664212164533,33.99462436492918]},"properties":{"mile":215}},{"type":"Feature","geometry":{"type":"Point","coordinates":[-116.65046304473137,34.031681851215275]},"properties":{"mile":220}},{"type":"Feature","geometry":{"type":"Point","coordinates":[-116.66658956457302,34.06611626626668]},"properties":{"mile":225}},{"type":"Feature","geometry":{"type":"Point","coordinates":[-116.69303077152927,34.11705996726561]},"properties":{"mile":230}},{"type":"Feature","geometry":{"type":"Point","coordinates":[-116.7490057092643,34.127898966863825]},"properties":{"mile":235}},{"type":"Feature","geometry":{"type":"Point","coordinates":[-116.73668977717064,34.1452678020801]},"properties":{"mile":240}},{"type":"Feature","geometry":{"type":"Point","coordinates":[-116.7100916779996,34.16484881389548]},"properties":{"mile":245}},{"type":"Feature","geometry":{"type":"Point","coordinates":[-116.72702250774527,34.20843756785834]},"properties":{"mile":250}},{"type":"Feature","geometry":{"type":"Point","coordinates":[-116.7572634251918,34.24491388283451]},"properties":{"mile":255}},{"type":"Feature","geometry":{"type":"Point","coordinates":[-116.78854703965146,34.286282091890364]},"properties":{"mile":260}},{"type":"Feature","geometry":{"type":"Point","coordinates":[-116.8327704248487,34.29184571999885]},"properties":{"mile":265}},{"type":"Feature","geometry":{"type":"Point","coordinates":[-116.88252720813936,34.28985648726377]},"properties":{"mile":270}},{"type":"Feature","geometry":{"type":"Point","coordinates":[-116.9329156362568,34.287773010375815]},"properties":{"mile":275}},{"type":"Feature","geometry":{"type":"Point","coordinates":[-116.97586473579301,34.29882291205745]},"properties":{"mile":280}},{"type":"Feature","geometry":{"type":"Point","coordinates":[-117.03093139276297,34.28114778621505]},"properties":{"mile":285}},{"type":"Feature","geometry":{"type":"Point","coordinates":[-117.08905841336026,34.27561081675245]},"properties":{"mile":290}},{"type":"Feature","geometry":{"type":"Point","coordinates":[-117.12832436347693,34.29178211673855]},"properties":{"mile":295}},{"type":"Feature","geometry":{"type":"Point","coordinates":[-117.15584816110774,34.325648638928804]},"properties":{"mile":300}},{"type":"Feature","geometry":{"type":"Point","coordinates":[-117.20000655300726,34.34382773986477]},"properties":{"mile":305}},{"type":"Feature","geometry":{"type":"Point","coordinates":[-117.24892995505405,34.32560082422077]},"properties":{"mile":310}},{"type":"Feature","geometry":{"type":"Point","coordinates":[-117.28099406792006,34.30368415669411]},"properties":{"mile":315}},{"type":"Feature","geometry":{"type":"Point","coordinates":[-117.33464480501664,34.29965165277887]},"properties":{"mile":320}},{"type":"Feature","geometry":{"type":"Point","coordinates":[-117.37489209671539,34.2871159521813]},"properties":{"mile":325}},{"type":"Feature","geometry":{"type":"Point","coordinates":[-117.40974838077855,34.31343703270684]},"properties":{"mile":330}},{"type":"Feature","geometry":{"type":"Point","coordinates":[-117.4593315120216,34.31519080232446]},"properties":{"mile":335}},{"type":"Feature","geometry":{"type":"Point","coordinates":[-117.4918869554758,34.295646111191296]},"properties":{"mile":340}},{"type":"Feature","geometry":{"type":"Point","coordinates":[-117.52357476325075,34.2898361645343]},"properties":{"mile":345}},{"type":"Feature","geometry":{"type":"Point","coordinates":[-117.5776286019828,34.31226489181446]},"properties":{"mile":350}},{"type":"Feature","geometry":{"type":"Point","coordinates":[-117.62440914459316,34.32765500668744]},"properties":{"mile":355}},{"type":"Feature","geometry":{"type":"Point","coordinates":[-117.67563202283465,34.35391765970296]},"properties":{"mile":360}},{"type":"Feature","geometry":{"type":"Point","coordinates":[-117.73135997613178,34.38214373141658]},"properties":{"mile":365}},{"type":"Feature","geometry":{"type":"Point","coordinates":[-117.75957685410941,34.36625544924876]},"properties":{"mile":370}},{"type":"Feature","geometry":{"type":"Point","coordinates":[-117.80609447670435,34.34199700558409]},"properties":{"mile":375}},{"type":"Feature","geometry":{"type":"Point","coordinates":[-117.85685433894342,34.36074535275238]},"properties":{"mile":380}},{"type":"Feature","geometry":{"type":"Point","coordinates":[-117.88040750616236,34.359440541825464]},"properties":{"mile":385}},{"type":"Feature","geometry":{"type":"Point","coordinates":[-117.92560927031715,34.35935067169364]},"properties":{"mile":390}},{"type":"Feature","geometry":{"type":"Point","coordinates":[-117.9713658910485,34.343128925669475]},"properties":{"mile":395}},{"type":"Feature","geometry":{"type":"Point","coordinates":[-117.99276396500788,34.368223535619066]},"properties":{"mile":400}},{"type":"Feature","geometry":{"type":"Point","coordinates":[-118.03021211473329,34.38956675046383]},"properties":{"mile":405}},{"type":"Feature","geometry":{"type":"Point","coordinates":[-118.06752727149743,34.38913801161457]},"properties":{"mile":410}},{"type":"Feature","geometry":{"type":"Point","coordinates":[-118.11726351280278,34.39177619736236]},"properties":{"mile":415}},{"type":"Feature","geometry":{"type":"Point","coordinates":[-118.15933438797548,34.38000080082395]},"properties":{"mile":420}},{"type":"Feature","geometry":{"type":"Point","coordinates":[-118.20996528404484,34.37877353838096]},"properties":{"mile":425}},{"type":"Feature","geometry":{"type":"Point","coordinates":[-118.24737904904102,34.39704678770149]},"properties":{"mile":430}},{"type":"Feature","geometry":{"type":"Point","coordinates":[-118.2686015613623,34.43019654628363]},"properties":{"mile":435}},{"type":"Feature","geometry":{"type":"Point","coordinates":[-118.27845272889884,34.462260002508266]},"properties":{"mile":440}},{"type":"Feature","geometry":{"type":"Point","coordinates":[-118.3092093805969,34.48331790679711]},"properties":{"mile":445}},{"type":"Feature","geometry":{"type":"Point","coordinates":[-118.31402832025903,34.53062074147042]},"properties":{"mile":450}},{"type":"Feature","geometry":{"type":"Point","coordinates":[-118.32250383095725,34.566496441476154]},"properties":{"mile":455}},{"type":"Feature","geometry":{"type":"Point","coordinates":[-118.33779792620014,34.58941707436947]},"properties":{"mile":460}},{"type":"Feature","geometry":{"type":"Point","coordinates":[-118.37083244376161,34.61200489838639]},"properties":{"mile":465}},{"type":"Feature","geometry":{"type":"Point","coordinates":[-118.39282677637196,34.62676653771866]},"properties":{"mile":470}},{"type":"Feature","geometry":{"type":"Point","coordinates":[-118.43313222324004,34.646099935584495]},"properties":{"mile":475}},{"type":"Feature","geometry":{"type":"Point","coordinates":[-118.46881287536434,34.66995288269753]},"properties":{"mile":480}},{"type":"Feature","geometry":{"type":"Point","coordinates":[-118.5193943523263,34.688468567847615]},"properties":{"mile":485}},{"type":"Feature","geometry":{"type":"Point","coordinates":[-118.56915434466427,34.70233786163014]},"properties":{"mile":490}},{"type":"Feature","geometry":{"type":"Point","coordinates":[-118.61996526577256,34.70640111113513]},"properties":{"mile":495}},{"type":"Feature","geometry":{"type":"Point","coordinates":[-118.66071378372455,34.72835342795935]},"properties":{"mile":500}},{"type":"Feature","geometry":{"type":"Point","coordinates":[-118.63782239608244,34.75365513886749]},"properties":{"mile":505}},{"type":"Feature","geometry":{"type":"Point","coordinates":[-118.60776257816752,34.781993787044016]},"properties":{"mile":510}},{"type":"Feature","geometry":{"type":"Point","coordinates":[-118.58593267409854,34.834407800350725]},"properties":{"mile":515}},{"type":"Feature","geometry":{"type":"Point","coordinates":[-118.51206113886889,34.857132192257716]},"properties":{"mile":520}},{"type":"Feature","geometry":{"type":"Point","coordinates":[-118.45071135649937,34.879870960424306]},"properties":{"mile":525}},{"type":"Feature","geometry":{"type":"Point","coordinates":[-118.47190560898812,34.93813334634681]},"properties":{"mile":530}},{"type":"Feature","geometry":{"type":"Point","coordinates":[-118.45527152965829,34.97790028497195]},"properties":{"mile":535}},{"type":"Feature","geometry":{"type":"Point","coordinates":[-118.43744646966377,34.989695909156865]},"properties":{"mile":540}},{"type":"Feature","geometry":{"type":"Point","coordinates":[-118.39913402289243,35.02009421520592]},"properties":{"mile":545}},{"type":"Feature","geometry":{"type":"Point","coordinates":[-118.35678575522121,35.04965747043495]},"properties":{"mile":550}},{"type":"Feature","geometry":{"type":"Point","coordinates":[-118.3103462493086,35.08161839435377]},"properties":{"mile":555}},{"type":"Feature","geometry":{"type":"Point","coordinates":[-118.2651475305774,35.108891291092064]},"properties":{"mile":560}},{"type":"Feature","geometry":{"type":"Point","coordinates":[-118.26157307925172,35.140703882227214]},"properties":{"mile":565}},{"type":"Feature","geometry":{"type":"Point","coordinates":[-118.24296480180217,35.18549266825333]},"properties":{"mile":570}},{"type":"Feature","geometry":{"type":"Point","coordinates":[-118.23610758968198,35.22629531218646]},"properties":{"mile":575}},{"type":"Feature","geometry":{"type":"Point","coordinates":[-118.24971415218862,35.263538653963316]},"properties":{"mile":580}},{"type":"Feature","geometry":{"type":"Point","coordinates":[-118.26976910799314,35.295412932086876]},"properties":{"mile":585}},{"type":"Feature","geometry":{"type":"Point","coordinates":[-118.28559347688473,35.343748813000445]},"properties":{"mile":590}},{"type":"Feature","geometry":{"type":"Point","coordinates":[-118.29977924640761,35.38825766400004]},"properties":{"mile":595}},{"type":"Feature","geometry":{"type":"Point","coordinates":[-118.31072174863844,35.437353561773655]},"properties":{"mile":600}},{"type":"Feature","geometry":{"type":"Point","coordinates":[-118.26262628298858,35.45408719974872]},"properties":{"mile":605}},{"type":"Feature","geometry":{"type":"Point","coordinates":[-118.21043068322895,35.454929756706385]},"properties":{"mile":610}},{"type":"Feature","geometry":{"type":"Point","coordinates":[-118.14819311369122,35.468852532943494]},"properties":{"mile":615}},{"type":"Feature","geometry":{"type":"Point","coordinates":[-118.1262162875221,35.51800961644116]},"properties":{"mile":620}},{"type":"Feature","geometry":{"type":"Point","coordinates":[-118.11638802563971,35.55109689637187]},"properties":{"mile":625}},{"type":"Feature","geometry":{"type":"Point","coordinates":[-118.12074519602186,35.58558063366711]},"properties":{"mile":630}},{"type":"Feature","geometry":{"type":"Point","coordinates":[-118.10062025553142,35.619663125239065]},"properties":{"mile":635}},{"type":"Feature","geometry":{"type":"Point","coordinates":[-118.04982377286395,35.63842842914444]},"properties":{"mile":640}},{"type":"Feature","geometry":{"type":"Point","coordinates":[-118.02212225943273,35.66370529720232]},"properties":{"mile":645}},{"type":"Feature","geometry":{"type":"Point","coordinates":[-117.98190912057788,35.6999027612783]},"properties":{"mile":650}},{"type":"Feature","geometry":{"type":"Point","coordinates":[-118.01454740219619,35.73338595151706]},"properties":{"mile":655}},{"type":"Feature","geometry":{"type":"Point","coordinates":[-118.03978509575893,35.76371876801218]},"properties":{"mile":660}},{"type":"Feature","geometry":{"type":"Point","coordinates":[-118.01959214916603,35.77711826965574]},"properties":{"mile":665}},{"type":"Feature","geometry":{"type":"Point","coordinates":[-118.01097839212623,35.80909119346759]},"properties":{"mile":670}},{"type":"Feature","geometry":{"type":"Point","coordinates":[-118.05907083375781,35.846743227540486]},"properties":{"mile":675}},{"type":"Feature","geometry":{"type":"Point","coordinates":[-118.08748498180289,35.88992333454601]},"properties":{"mile":680}},{"type":"Feature","geometry":{"type":"Point","coordinates":[-118.13666770666478,35.91864015899469]},"properties":{"mile":685}},{"type":"Feature","geometry":{"type":"Point","coordinates":[-118.15423153488679,35.971746080825596]},"properties":{"mile":690}},{"type":"Feature","geometry":{"type":"Point","coordinates":[-118.13324895494574,36.026582709982996]},"properties":{"mile":695}},{"type":"Feature","geometry":{"type":"Point","coordinates":[-118.12376627200065,36.09088491438872]},"properties":{"mile":700}},{"type":"Feature","geometry":{"type":"Point","coordinates":[-118.14259349809751,36.141514160345125]},"properties":{"mile":705}},{"type":"Feature","geometry":{"type":"Point","coordinates":[-118.13647537307784,36.19375843191618]},"properties":{"mile":710}},{"type":"Feature","geometry":{"type":"Point","coordinates":[-118.11811797833005,36.23887931782844]},"properties":{"mile":715}},{"type":"Feature","geometry":{"type":"Point","coordinates":[-118.13475535647744,36.28983435038821]},"properties":{"mile":720}},{"type":"Feature","geometry":{"type":"Point","coordinates":[-118.13314978564468,36.33545587897908]},"properties":{"mile":725}},{"type":"Feature","geometry":{"type":"Point","coordinates":[-118.14954925447819,36.37713161663338]},"properties":{"mile":730}},{"type":"Feature","geometry":{"type":"Point","coordinates":[-118.14607608736415,36.42319119088889]},"properties":{"mile":735}},{"type":"Feature","geometry":{"type":"Point","coordinates":[-118.20812865868345,36.428435535382626]},"properties":{"mile":740}},{"type":"Feature","geometry":{"type":"Point","coordinates":[-118.24742008812369,36.466824472384914]},"properties":{"mile":745}},{"type":"Feature","geometry":{"type":"Point","coordinates":[-118.31446064284484,36.48086535286439]},"properties":{"mile":750}},{"type":"Feature","geometry":{"type":"Point","coordinates":[-118.34945807317514,36.51694619694161]},"properties":{"mile":755}},{"type":"Feature","geometry":{"type":"Point","coordinates":[-118.36668327775587,36.56593643495169]},"properties":{"mile":760}},{"type":"Feature","geometry":{"type":"Point","coordinates":[-118.37920180215743,36.61294460909324]},"properties":{"mile":765}},{"type":"Feature","geometry":{"type":"Point","coordinates":[-118.38232653983536,36.67492223806552]},"properties":{"mile":770}},{"type":"Feature","geometry":{"type":"Point","coordinates":[-118.36656617576914,36.714627657226046]},"properties":{"mile":775}},{"type":"Feature","geometry":{"type":"Point","coordinates":[-118.40604546587421,36.75909681146976]},"properties":{"mile":780}},{"type":"Feature","geometry":{"type":"Point","coordinates":[-118.40976793293103,36.79197328932973]},"properties":{"mile":785}},{"type":"Feature","geometry":{"type":"Point","coordinates":[-118.40856347556144,36.84302699247057]},"properties":{"mile":790}},{"type":"Feature","geometry":{"type":"Point","coordinates":[-118.42228800820342,36.88840234182437]},"properties":{"mile":795}},{"type":"Feature","geometry":{"type":"Point","coordinates":[-118.40937630244011,36.929180499415935]},"properties":{"mile":800}},{"type":"Feature","geometry":{"type":"Point","coordinates":[-118.44080044735028,36.96867439734448]},"properties":{"mile":805}},{"type":"Feature","geometry":{"type":"Point","coordinates":[-118.4541402390633,37.02965707451739]},"properties":{"mile":810}},{"type":"Feature","geometry":{"type":"Point","coordinates":[-118.49218090080652,37.05989535075549]},"properties":{"mile":815}},{"type":"Feature","geometry":{"type":"Point","coordinates":[-118.55141877093475,37.051747352032564]},"properties":{"mile":820}},{"type":"Feature","geometry":{"type":"Point","coordinates":[-118.5953384161363,37.08958243230226]},"properties":{"mile":825}},{"type":"Feature","geometry":{"type":"Point","coordinates":[-118.64098834058517,37.119052420294125]},"properties":{"mile":830}},{"type":"Feature","geometry":{"type":"Point","coordinates":[-118.69223746340579,37.12546909506787]},"properties":{"mile":835}},{"type":"Feature","geometry":{"type":"Point","coordinates":[-118.70718158495556,37.177427783557015]},"properties":{"mile":840}},{"type":"Feature","geometry":{"type":"Point","coordinates":[-118.77007558128157,37.19386580525922]},"properties":{"mile":845}},{"type":"Feature","geometry":{"type":"Point","coordinates":[-118.82263282849375,37.215678466544354]},"properties":{"mile":850}},{"type":"Feature","geometry":{"type":"Point","coordinates":[-118.87113913070355,37.24379203681349]},"properties":{"mile":855}},{"type":"Feature","geometry":{"type":"Point","coordinates":[-118.87491496349553,37.279906998085515]},"properties":{"mile":860}},{"type":"Feature","geometry":{"type":"Point","coordinates":[-118.86791558712814,37.333469173995255]},"properties":{"mile":865}},{"type":"Feature","geometry":{"type":"Point","coordinates":[-118.90561789308049,37.380445735010476]},"properties":{"mile":870}},{"type":"Feature","geometry":{"type":"Point","coordinates":[-118.92409519801349,37.41286947533137]},"properties":{"mile":875}},{"type":"Feature","geometry":{"type":"Point","coordinates":[-118.91960212039572,37.4510564582613]},"properties":{"mile":880}},{"type":"Feature","geometry":{"type":"Point","coordinates":[-118.93377735893867,37.48949799600142]},"properties":{"mile":885}},{"type":"Feature","geometry":{"type":"Point","coordinates":[-118.94629771458439,37.5269704601293]},"properties":{"mile":890}},{"type":"Feature","geometry":{"type":"Point","coordinates":[-118.99647636772121,37.548059298972305]},"properties":{"mile":895}},{"type":"Feature","geometry":{"type":"Point","coordinates":[-119.0487640720398,37.58191144486809]},"properties":{"mile":900}},{"type":"Feature","geometry":{"type":"Point","coordinates":[-119.08688487103008,37.61660535752403]},"properties":{"mile":905}},{"type":"Feature","geometry":{"type":"Point","coordinates":[-119.0863986645599,37.6737361811269]},"properties":{"mile":910}},{"type":"Feature","geometry":{"type":"Point","coordinates":[-119.10845913899344,37.70323464583805]},"properties":{"mile":915}},{"type":"Feature","geometry":{"type":"Point","coordinates":[-119.1665943067411,37.7302874161717]},"properties":{"mile":920}},{"type":"Feature","geometry":{"type":"Point","coordinates":[-119.22345954460984,37.75431240962881]},"properties":{"mile":925}},{"type":"Feature","geometry":{"type":"Point","coordinates":[-119.26239014059848,37.77810193663576]},"properties":{"mile":930}},{"type":"Feature","geometry":{"type":"Point","coordinates":[-119.28368209999996,37.83674811059333]},"properties":{"mile":935}},{"type":"Feature","geometry":{"type":"Point","coordinates":[-119.33891900758698,37.87745836170977]},"properties":{"mile":940}},{"type":"Feature","geometry":{"type":"Point","coordinates":[-119.4102558408011,37.901336903656315]},"properties":{"mile":945}},{"type":"Feature","geometry":{"type":"Point","coordinates":[-119.40564887371615,37.95398437660407]},"properties":{"mile":950}},{"type":"Feature","geometry":{"type":"Point","coordinates":[-119.38364394926332,38.0031767908804]},"properties":{"mile":955}},{"type":"Feature","geometry":{"type":"Point","coordinates":[-119.41386213527518,38.01156670606314]},"properties":{"mile":960}},{"type":"Feature","geometry":{"type":"Point","coordinates":[-119.46503755161979,38.01373268672982]},"properties":{"mile":965}},{"type":"Feature","geometry":{"type":"Point","coordinates":[-119.51137106936821,38.01670347672657]},"properties":{"mile":970}},{"type":"Feature","geometry":{"type":"Point","coordinates":[-119.52560161955967,38.05006587365377]},"properties":{"mile":975}},{"type":"Feature","geometry":{"type":"Point","coordinates":[-119.5847481812964,38.05663600427251]},"properties":{"mile":980}},{"type":"Feature","geometry":{"type":"Point","coordinates":[-119.6370433478859,38.069782255170544]},"properties":{"mile":985}},{"type":"Feature","geometry":{"type":"Point","coordinates":[-119.62176467369368,38.119778654814326]},"properties":{"mile":990}},{"type":"Feature","geometry":{"type":"Point","coordinates":[-119.58925606540394,38.17861857353998]},"properties":{"mile":995}},{"type":"Feature","geometry":{"type":"Point","coordinates":[-119.58111332686032,38.21816060604652]},"properties":{"mile":1000}},{"type":"Feature","geometry":{"type":"Point","coordinates":[-119.60772423350971,38.24957305787549]},"properties":{"mile":1005}},{"type":"Feature","geometry":{"type":"Point","coordinates":[-119.64339461180641,38.284833762694426]},"properties":{"mile":1010}},{"type":"Feature","geometry":{"type":"Point","coordinates":[-119.63992529948428,38.32618103971168]},"properties":{"mile":1015}},{"type":"Feature","geometry":{"type":"Point","coordinates":[-119.62835308875161,38.36484621622947]},"properties":{"mile":1020}},{"type":"Feature","geometry":{"type":"Point","coordinates":[-119.66983039429775,38.417945718567076]},"properties":{"mile":1025}},{"type":"Feature","geometry":{"type":"Point","coordinates":[-119.70171193675078,38.4532642875692]},"properties":{"mile":1030}},{"type":"Feature","geometry":{"type":"Point","coordinates":[-119.73424231046353,38.48017089147498]},"properties":{"mile":1035}},{"type":"Feature","geometry":{"type":"Point","coordinates":[-119.77350571920446,38.50405361748181]},"properties":{"mile":1040}},{"type":"Feature","geometry":{"type":"Point","coordinates":[-119.79233163910757,38.544673331468424]},"properties":{"mile":1045}},{"type":"Feature","geometry":{"type":"Point","coordinates":[-119.82791879354578,38.572574558252825]},"properties":{"mile":1050}},{"type":"Feature","geometry":{"type":"Point","coordinates":[-119.82587411586186,38.61094806424824]},"properties":{"mile":1055}},{"type":"Feature","geometry":{"type":"Point","coordinates":[-119.86900847597346,38.608538310055394]},"properties":{"mile":1060}},{"type":"Feature","geometry":{"type":"Point","coordinates":[-119.92190167037349,38.62781964891486]},"properties":{"mile":1065}},{"type":"Feature","geometry":{"type":"Point","coordinates":[-119.97107905285213,38.66028124430163]},"properties":{"mile":1070}},{"type":"Feature","geometry":{"type":"Point","coordinates":[-119.99201089124136,38.69676007149148]},"properties":{"mile":1075}},{"type":"Feature","geometry":{"type":"Point","coordinates":[-120.03413337315648,38.74199283892943]},"properties":{"mile":1080}},{"type":"Feature","geometry":{"type":"Point","coordinates":[-120.04427879639816,38.78643370421724]},"properties":{"mile":1085}},{"type":"Feature","geometry":{"type":"Point","coordinates":[-120.04257305846035,38.83276981078979]},"properties":{"mile":1090}},{"type":"Feature","geometry":{"type":"Point","coordinates":[-120.10902425644285,38.85497868838895]},"properties":{"mile":1095}},{"type":"Feature","geometry":{"type":"Point","coordinates":[-120.12290390248822,38.88416990388937]},"properties":{"mile":1100}},{"type":"Feature","geometry":{"type":"Point","coordinates":[-120.13964819667838,38.915701007420516]},"properties":{"mile":1105}},{"type":"Feature","geometry":{"type":"Point","coordinates":[-120.16815957237347,38.955756543514646]},"properties":{"mile":1110}},{"type":"Feature","geometry":{"type":"Point","coordinates":[-120.20968739432327,39.00689316593996]},"properties":{"mile":1115}},{"type":"Feature","geometry":{"type":"Point","coordinates":[-120.24451073151621,39.04970617868434]},"properties":{"mile":1120}},{"type":"Feature","geometry":{"type":"Point","coordinates":[-120.24333083609191,39.09200920915908]},"properties":{"mile":1125}},{"type":"Feature","geometry":{"type":"Point","coordinates":[-120.24536844889437,39.13724998756771]},"properties":{"mile":1130}},{"type":"Feature","geometry":{"type":"Point","coordinates":[-120.27042182217174,39.16934771989751]},"properties":{"mile":1135}},{"type":"Feature","geometry":{"type":"Point","coordinates":[-120.27696521526715,39.21377266409321]},"properties":{"mile":1140}},{"type":"Feature","geometry":{"type":"Point","coordinates":[-120.299087173483,39.25631073050446]},"properties":{"mile":1145}},{"type":"Feature","geometry":{"type":"Point","coordinates":[-120.32294867237076,39.306347798857345]},"properties":{"mile":1150}},{"type":"Feature","geometry":{"type":"Point","coordinates":[-120.33796843444435,39.34497789049272]},"properties":{"mile":1155}},{"type":"Feature","geometry":{"type":"Point","coordinates":[-120.37147258891014,39.38262081518763]},"properties":{"mile":1160}},{"type":"Feature","geometry":{"type":"Point","coordinates":[-120.39968286313318,39.413066749659706]},"properties":{"mile":1165}},{"type":"Feature","geometry":{"type":"Point","coordinates":[-120.44761010098094,39.42532586921514]},"properties":{"mile":1170}},{"type":"Feature","geometry":{"type":"Point","coordinates":[-120.47208648786197,39.46160256204785]},"properties":{"mile":1175}},{"type":"Feature","geometry":{"type":"Point","coordinates":[-120.52398179101777,39.486144955487745]},"properties":{"mile":1180}},{"type":"Feature","geometry":{"type":"Point","coordinates":[-120.56878949753033,39.52641786269237]},"properties":{"mile":1185}},{"type":"Feature","geometry":{"type":"Point","coordinates":[-120.58029607539866,39.56076611625073]},"properties":{"mile":1190}},{"type":"Feature","geometry":{"type":"Point","coordinates":[-120.61518315625726,39.58712934377569]},"properties":{"mile":1195}},{"type":"Feature","geometry":{"type":"Point","coordinates":[-120.66082177194977,39.5884687012817]},"properties":{"mile":1200}},{"type":"Feature","geometry":{"type":"Point","coordinates":[-120.6500355031278,39.62563391520165]},"properties":{"mile":1205}},{"type":"Feature","geometry":{"type":"Point","coordinates":[-120.67687781550654,39.66304460593906]},"properties":{"mile":1210}},{"type":"Feature","geometry":{"type":"Point","coordinates":[-120.71302865930447,39.70242769169584]},"properties":{"mile":1215}},{"type":"Feature","geometry":{"type":"Point","coordinates":[-120.7732333679195,39.71793154165931]},"properties":{"mile":1220}},{"type":"Feature","geometry":{"type":"Point","coordinates":[-120.81359025596745,39.735019667169816]},"properties":{"mile":1225}},{"type":"Feature","geometry":{"type":"Point","coordinates":[-120.86284517491326,39.770727045388284]},"properties":{"mile":1230}},{"type":"Feature","geometry":{"type":"Point","coordinates":[-120.92325655073624,39.78409646803475]},"properties":{"mile":1235}},{"type":"Feature","geometry":{"type":"Point","coordinates":[-120.99225680245671,39.774204051665535]},"properties":{"mile":1240}},{"type":"Feature","geometry":{"type":"Point","coordinates":[-121.03450495246771,39.79460041732596]},"properties":{"mile":1245}},{"type":"Feature","geometry":{"type":"Point","coordinates":[-121.06581588485777,39.81644728349424]},"properties":{"mile":1250}},{"type":"Feature","geometry":{"type":"Point","coordinates":[-121.08857803138712,39.81129889200941]},"properties":{"mile":1255}},{"type":"Feature","geometry":{"type":"Point","coordinates":[-121.13532153829362,39.85343571642913]},"properties":{"mile":1260}},{"type":"Feature","geometry":{"type":"Point","coordinates":[-121.11675418487938,39.89027486642869]},"properties":{"mile":1265}},{"type":"Feature","geometry":{"type":"Point","coordinates":[-121.13234723530002,39.93249266563656]},"properties":{"mile":1270}},{"type":"Feature","geometry":{"type":"Point","coordinates":[-121.1898237082487,39.96596754071412]},"properties":{"mile":1275}},{"type":"Feature","geometry":{"type":"Point","coordinates":[-121.25565695167231,39.9837929955399]},"properties":{"mile":1280}},{"type":"Feature","geometry":{"type":"Point","coordinates":[-121.25171112242697,40.00702435888574]},"properties":{"mile":1285}},{"type":"Feature","geometry":{"type":"Point","coordinates":[-121.30390950539658,40.03068197115215]},"properties":{"mile":1290}},{"type":"Feature","geometry":{"type":"Point","coordinates":[-121.38428846731681,40.034639215622484]},"properties":{"mile":1295}},{"type":"Feature","geometry":{"type":"Point","coordinates":[-121.377891097856,40.067053720186635]},"properties":{"mile":1300}},{"type":"Feature","geometry":{"type":"Point","coordinates":[-121.3963088384624,40.1210103772454]},"properties":{"mile":1305}},{"type":"Feature","geometry":{"type":"Point","coordinates":[-121.44213331272731,40.155993798949865]},"properties":{"mile":1310}},{"type":"Feature","geometry":{"type":"Point","coordinates":[-121.42469878350363,40.19861518009499]},"properties":{"mile":1315}},{"type":"Feature","geometry":{"type":"Point","coordinates":[-121.36983009519251,40.20976916070508]},"properties":{"mile":1320}},{"type":"Feature","geometry":{"type":"Point","coordinates":[-121.36371713184998,40.23758079129514]},"properties":{"mile":1325}},{"type":"Feature","geometry":{"type":"Point","coordinates":[-121.34264913144256,40.272919661595985]},"properties":{"mile":1330}},{"type":"Feature","geometry":{"type":"Point","coordinates":[-121.36447805530916,40.322897038869726]},"properties":{"mile":1335}},{"type":"Feature","geometry":{"type":"Point","coordinates":[-121.3602406107378,40.36936178777918]},"properties":{"mile":1340}},{"type":"Feature","geometry":{"type":"Point","coordinates":[-121.38075290899016,40.420634795828306]},"properties":{"mile":1345}},{"type":"Feature","geometry":{"type":"Point","coordinates":[-121.4037031433893,40.459267436851206]},"properties":{"mile":1350}},{"type":"Feature","geometry":{"type":"Point","coordinates":[-121.36440829513975,40.50382416118237]},"properties":{"mile":1355}},{"type":"Feature","geometry":{"type":"Point","coordinates":[-121.3898255597083,40.55843419325504]},"properties":{"mile":1360}},{"type":"Feature","geometry":{"type":"Point","coordinates":[-121.46320823931661,40.57886779789183]},"properties":{"mile":1365}},{"type":"Feature","geometry":{"type":"Point","coordinates":[-121.460705855483,40.6342716742264]},"properties":{"mile":1370}},{"type":"Feature","geometry":{"type":"Point","coordinates":[-121.41969600775901,40.68019202784033]},"properties":{"mile":1375}},{"type":"Feature","geometry":{"type":"Point","coordinates":[-121.40468948254866,40.726265690798876]},"properties":{"mile":1380}},{"type":"Feature","geometry":{"type":"Point","coordinates":[-121.3931474427972,40.7671327732223]},"properties":{"mile":1385}},{"type":"Feature","geometry":{"type":"Point","coordinates":[-121.41633158144097,40.82983258753266]},"properties":{"mile":1390}},{"type":"Feature","geometry":{"type":"Point","coordinates":[-121.43663152557073,40.88586958703806]},"properties":{"mile":1395}},{"type":"Feature","geometry":{"type":"Point","coordinates":[-121.48881782847394,40.91815107407875]},"properties":{"mile":1400}},{"type":"Feature","geometry":{"type":"Point","coordinates":[-121.54865823077576,40.93225844461608]},"properties":{"mile":1405}},{"type":"Feature","geometry":{"type":"Point","coordinates":[-121.59193251363943,40.97131690754291]},"properties":{"mile":1410}},{"type":"Feature","geometry":{"type":"Point","coordinates":[-121.63310258927531,41.008424887592824]},"properties":{"mile":1415}},{"type":"Feature","geometry":{"type":"Point","coordinates":[-121.69415561411914,41.01344507894103]},"properties":{"mile":1420}},{"type":"Feature","geometry":{"type":"Point","coordinates":[-121.74721368909175,41.02924277313225]},"properties":{"mile":1425}},{"type":"Feature","geometry":{"type":"Point","coordinates":[-121.78297550783822,41.058216294797376]},"properties":{"mile":1430}},{"type":"Feature","geometry":{"type":"Point","coordinates":[-121.78533585477263,41.10848326681575]},"properties":{"mile":1435}},{"type":"Feature","geometry":{"type":"Point","coordinates":[-121.77541993383394,41.15800590729381]},"properties":{"mile":1440}},{"type":"Feature","geometry":{"type":"Point","coordinates":[-121.83451899836676,41.17448580635788]},"properties":{"mile":1445}},{"type":"Feature","geometry":{"type":"Point","coordinates":[-121.89512237620194,41.17455961865855]},"properties":{"mile":1450}},{"type":"Feature","geometry":{"type":"Point","coordinates":[-121.95691992823599,41.158295700052264]},"properties":{"mile":1455}},{"type":"Feature","geometry":{"type":"Point","coordinates":[-121.98666513100534,41.128020651059344]},"properties":{"mile":1460}},{"type":"Feature","geometry":{"type":"Point","coordinates":[-122.02902623122526,41.1254786568257]},"properties":{"mile":1465}},{"type":"Feature","geometry":{"type":"Point","coordinates":[-122.0825605299372,41.11454939628215]},"properties":{"mile":1470}},{"type":"Feature","geometry":{"type":"Point","coordinates":[-122.12369392230849,41.11097960801605]},"properties":{"mile":1475}},{"type":"Feature","geometry":{"type":"Point","coordinates":[-122.15463164265755,41.125003111164304]},"properties":{"mile":1480}},{"type":"Feature","geometry":{"type":"Point","coordinates":[-122.19734337486356,41.13908800382863]},"properties":{"mile":1485}},{"type":"Feature","geometry":{"type":"Point","coordinates":[-122.24851665564336,41.14095223575179]},"properties":{"mile":1490}},{"type":"Feature","geometry":{"type":"Point","coordinates":[-122.27370973935001,41.15579885317776]},"properties":{"mile":1495}},{"type":"Feature","geometry":{"type":"Point","coordinates":[-122.31012872957201,41.16173463501903]},"properties":{"mile":1500}},{"type":"Feature","geometry":{"type":"Point","coordinates":[-122.36233741966095,41.164909956242745]},"properties":{"mile":1505}},{"type":"Feature","geometry":{"type":"Point","coordinates":[-122.38085828236542,41.19431769708047]},"properties":{"mile":1510}},{"type":"Feature","geometry":{"type":"Point","coordinates":[-122.41273649554523,41.211224401831366]},"properties":{"mile":1515}},{"type":"Feature","geometry":{"type":"Point","coordinates":[-122.48053153893424,41.19142200562383]},"properties":{"mile":1520}},{"type":"Feature","geometry":{"type":"Point","coordinates":[-122.51354489885543,41.228864446206956]},"properties":{"mile":1525}},{"type":"Feature","geometry":{"type":"Point","coordinates":[-122.50407938153604,41.287478425280476]},"properties":{"mile":1530}},{"type":"Feature","geometry":{"type":"Point","coordinates":[-122.50835190746477,41.32959401874142]},"properties":{"mile":1535}},{"type":"Feature","geometry":{"type":"Point","coordinates":[-122.57276304140188,41.35757617713356]},"properties":{"mile":1540}},{"type":"Feature","geometry":{"type":"Point","coordinates":[-122.59327352319593,41.32191781753474]},"properties":{"mile":1545}},{"type":"Feature","geometry":{"type":"Point","coordinates":[-122.64499948140653,41.31112078420842]},"properties":{"mile":1550}},{"type":"Feature","geometry":{"type":"Point","coordinates":[-122.67251828045875,41.276462478444536]},"properties":{"mile":1555}},{"type":"Feature","geometry":{"type":"Point","coordinates":[-122.72186227005857,41.26436177379535]},"properties":{"mile":1560}},{"type":"Feature","geometry":{"type":"Point","coordinates":[-122.7696013120789,41.2292679023041]},"properties":{"mile":1565}},{"type":"Feature","geometry":{"type":"Point","coordinates":[-122.8157727546637,41.20526137741898]},"properties":{"mile":1570}},{"type":"Feature","geometry":{"type":"Point","coordinates":[-122.87996851248127,41.21397000854941]},"properties":{"mile":1575}},{"type":"Feature","geometry":{"type":"Point","coordinates":[-122.93193887184266,41.24059103988263]},"properties":{"mile":1580}},{"type":"Feature","geometry":{"type":"Point","coordinates":[-122.95988755606471,41.28171391370177]},"properties":{"mile":1585}},{"type":"Feature","geometry":{"type":"Point","coordinates":[-122.96601428349636,41.333072096365214]},"properties":{"mile":1590}},{"type":"Feature","geometry":{"type":"Point","coordinates":[-122.97204001962605,41.37641697456687]},"properties":{"mile":1595}},{"type":"Feature","geometry":{"type":"Point","coordinates":[-123.0351169222574,41.40272626356836]},"properties":{"mile":1600}},{"type":"Feature","geometry":{"type":"Point","coordinates":[-123.04221276853629,41.45706148126043]},"properties":{"mile":1605}},{"type":"Feature","geometry":{"type":"Point","coordinates":[-123.08890088431355,41.49421641869638]},"properties":{"mile":1610}},{"type":"Feature","geometry":{"type":"Point","coordinates":[-123.1276053953637,41.52813978812411]},"properties":{"mile":1615}},{"type":"Feature","geometry":{"type":"Point","coordinates":[-123.20002947545622,41.553197261858806]},"properties":{"mile":1620}},{"type":"Feature","geometry":{"type":"Point","coordinates":[-123.20520176550782,41.598845938143896]},"properties":{"mile":1625}},{"type":"Feature","geometry":{"type":"Point","coordinates":[-123.22775575757538,41.655306898202845]},"properties":{"mile":1630}},{"type":"Feature","geometry":{"type":"Point","coordinates":[-123.24862737292213,41.69529765460035]},"properties":{"mile":1635}},{"type":"Feature","geometry":{"type":"Point","coordinates":[-123.2365032726446,41.73151018079141]},"properties":{"mile":1640}},{"type":"Feature","geometry":{"type":"Point","coordinates":[-123.22435356678739,41.789783165700584]},"properties":{"mile":1645}},{"type":"Feature","geometry":{"type":"Point","coordinates":[-123.19667343832039,41.8321124684312]},"properties":{"mile":1650}},{"type":"Feature","geometry":{"type":"Point","coordinates":[-123.20953752659824,41.84932268741186]},"properties":{"mile":1655}},{"type":"Feature","geometry":{"type":"Point","coordinates":[-123.19963571009502,41.884817209981044]},"properties":{"mile":1660}},{"type":"Feature","geometry":{"type":"Point","coordinates":[-123.17878174682376,41.9279200651755]},"properties":{"mile":1665}},{"type":"Feature","geometry":{"type":"Point","coordinates":[-123.12598226044514,41.93929540459877]},"properties":{"mile":1670}},{"type":"Feature","geometry":{"type":"Point","coordinates":[-123.04879803763274,41.95165215348234]},"properties":{"mile":1675}},{"type":"Feature","geometry":{"type":"Point","coordinates":[-122.977287205529,41.9350546485277]},"properties":{"mile":1680}},{"type":"Feature","geometry":{"type":"Point","coordinates":[-122.93066627343966,41.96900961574524]},"properties":{"mile":1685}},{"type":"Feature","geometry":{"type":"Point","coordinates":[-122.9001062588736,42.00823886309521]},"properties":{"mile":1690}},{"type":"Feature","geometry":{"type":"Point","coordinates":[-122.85509249941863,42.04515127352358]},"properties":{"mile":1695}},{"type":"Feature","geometry":{"type":"Point","coordinates":[-122.79679610289192,42.047548805594964]},"properties":{"mile":1700}},{"type":"Feature","geometry":{"type":"Point","coordinates":[-122.74464686836467,42.077158794157235]},"properties":{"mile":1705}},{"type":"Feature","geometry":{"type":"Point","coordinates":[-122.68078000301205,42.06887739245746]},"properties":{"mile":1710}},{"type":"Feature","geometry":{"type":"Point","coordinates":[-122.61394743226448,42.07277111903815]},"properties":{"mile":1715}},{"type":"Feature","geometry":{"type":"Point","coordinates":[-122.57594348504655,42.03538530333181]},"properties":{"mile":1720}},{"type":"Feature","geometry":{"type":"Point","coordinates":[-122.51317427089332,42.05245565396648]},"properties":{"mile":1725}},{"type":"Feature","geometry":{"type":"Point","coordinates":[-122.47549057897676,42.09957101609383]},"properties":{"mile":1730}},{"type":"Feature","geometry":{"type":"Point","coordinates":[-122.50398245615547,42.137082492440676]},"properties":{"mile":1735}},{"type":"Feature","geometry":{"type":"Point","coordinates":[-122.46395790551344,42.163942095314724]},"properties":{"mile":1740}},{"type":"Feature","geometry":{"type":"Point","coordinates":[-122.41311095369477,42.20100819131086]},"properties":{"mile":1745}},{"type":"Feature","geometry":{"type":"Point","coordinates":[-122.34527749239801,42.229778019809345]},"properties":{"mile":1750}},{"type":"Feature","geometry":{"type":"Point","coordinates":[-122.28947016832115,42.25893919752176]},"properties":{"mile":1755}},{"type":"Feature","geometry":{"type":"Point","coordinates":[-122.2641701591408,42.306961526140576]},"properties":{"mile":1760}},{"type":"Feature","geometry":{"type":"Point","coordinates":[-122.29161060806568,42.34399018040665]},"properties":{"mile":1765}},{"type":"Feature","geometry":{"type":"Point","coordinates":[-122.28593497483521,42.38978639367669]},"properties":{"mile":1770}},{"type":"Feature","geometry":{"type":"Point","coordinates":[-122.27017497730944,42.43445716202658]},"properties":{"mile":1775}},{"type":"Feature","geometry":{"type":"Point","coordinates":[-122.27912059644557,42.487998064456086]},"properties":{"mile":1780}},{"type":"Feature","geometry":{"type":"Point","coordinates":[-122.23318134101268,42.526538352267295]},"properties":{"mile":1785}},{"type":"Feature","geometry":{"type":"Point","coordinates":[-122.22701001649514,42.58555345719289]},"properties":{"mile":1790}},{"type":"Feature","geometry":{"type":"Point","coordinates":[-122.22152934571311,42.63861003779265]},"properties":{"mile":1795}},{"type":"Feature","geometry":{"type":"Point","coordinates":[-122.19476814230241,42.67557591665704]},"properties":{"mile":1800}},{"type":"Feature","geometry":{"type":"Point","coordinates":[-122.19058063174683,42.725296810951754]},"properties":{"mile":1805}},{"type":"Feature","geometry":{"type":"Point","coordinates":[-122.17771822293466,42.77807733761612]},"properties":{"mile":1810}},{"type":"Feature","geometry":{"type":"Point","coordinates":[-122.18978580733794,42.83451448903197]},"properties":{"mile":1815}},{"type":"Feature","geometry":{"type":"Point","coordinates":[-122.16704634671954,42.888848996329045]},"properties":{"mile":1820}},{"type":"Feature","geometry":{"type":"Point","coordinates":[-122.22020332708362,42.930226078099636]},"properties":{"mile":1825}},{"type":"Feature","geometry":{"type":"Point","coordinates":[-122.22326840744638,42.9811362154809]},"properties":{"mile":1830}},{"type":"Feature","geometry":{"type":"Point","coordinates":[-122.15760622065096,43.00360510623025]},"properties":{"mile":1835}},{"type":"Feature","geometry":{"type":"Point","coordinates":[-122.09310934952487,43.02989995158936]},"properties":{"mile":1840}},{"type":"Feature","geometry":{"type":"Point","coordinates":[-122.09194517099594,43.088737998913146]},"properties":{"mile":1845}},{"type":"Feature","geometry":{"type":"Point","coordinates":[-122.07900384609408,43.14126092362604]},"properties":{"mile":1850}},{"type":"Feature","geometry":{"type":"Point","coordinates":[-122.05769125161622,43.18155644191877]},"properties":{"mile":1855}},{"type":"Feature","geometry":{"type":"Point","coordinates":[-122.01975207702492,43.22556676686162]},"properties":{"mile":1860}},{"type":"Feature","geometry":{"type":"Point","coordinates":[-121.99104975269032,43.25849127108659]},"properties":{"mile":1865}},{"type":"Feature","geometry":{"type":"Point","coordinates":[-122.00430124600608,43.31408896164077]},"properties":{"mile":1870}},{"type":"Feature","geometry":{"type":"Point","coordinates":[-122.02976721318828,43.363470760288955]},"properties":{"mile":1875}},{"type":"Feature","geometry":{"type":"Point","coordinates":[-122.06488968830547,43.40586813226262]},"properties":{"mile":1880}},{"type":"Feature","geometry":{"type":"Point","coordinates":[-122.11235394319635,43.44259233138777]},"properties":{"mile":1885}},{"type":"Feature","geometry":{"type":"Point","coordinates":[-122.13839695138955,43.48363348981922]},"properties":{"mile":1890}},{"type":"Feature","geometry":{"type":"Point","coordinates":[-122.12040177344649,43.52815399815735]},"properties":{"mile":1895}},{"type":"Feature","geometry":{"type":"Point","coordinates":[-122.09597126810571,43.57151475245876]},"properties":{"mile":1900}},{"type":"Feature","geometry":{"type":"Point","coordinates":[-122.034627833827,43.59716904087866]},"properties":{"mile":1905}},{"type":"Feature","geometry":{"type":"Point","coordinates":[-122.00221541462992,43.61453086521269]},"properties":{"mile":1910}},{"type":"Feature","geometry":{"type":"Point","coordinates":[-121.98746852426149,43.665529675362855]},"properties":{"mile":1915}},{"type":"Feature","geometry":{"type":"Point","coordinates":[-121.98414910468536,43.72165157699578]},"properties":{"mile":1920}},{"type":"Feature","geometry":{"type":"Point","coordinates":[-121.9678760289183,43.77423510235533]},"properties":{"mile":1925}},{"type":"Feature","geometry":{"type":"Point","coordinates":[-121.95260400114483,43.834405878757984]},"properties":{"mile":1930}},{"type":"Feature","geometry":{"type":"Point","coordinates":[-121.95331733049838,43.87762690740187]},"properties":{"mile":1935}},{"type":"Feature","geometry":{"type":"Point","coordinates":[-121.90235839189884,43.922178210364784]},"properties":{"mile":1940}},{"type":"Feature","geometry":{"type":"Point","coordinates":[-121.88336610441503,43.965476886117756]},"properties":{"mile":1945}},{"type":"Feature","geometry":{"type":"Point","coordinates":[-121.82612958550338,43.9850485013181]},"properties":{"mile":1950}},{"type":"Feature","geometry":{"type":"Point","coordinates":[-121.82894886091321,44.030116858391935]},"properties":{"mile":1955}},{"type":"Feature","geometry":{"type":"Point","coordinates":[-121.817274786837,44.07824670759347]},"properties":{"mile":1960}},{"type":"Feature","geometry":{"type":"Point","coordinates":[-121.8196481665252,44.12513137201405]},"properties":{"mile":1965}},{"type":"Feature","geometry":{"type":"Point","coordinates":[-121.81848904345233,44.177565306153575]},"properties":{"mile":1970}},{"type":"Feature","geometry":{"type":"Point","coordinates":[-121.78763636705315,44.215047034289015]},"properties":{"mile":1975}},{"type":"Feature","geometry":{"type":"Point","coordinates":[-121.79452092332072,44.258071737161146]},"properties":{"mile":1980}},{"type":"Feature","geometry":{"type":"Point","coordinates":[-121.82835733711356,44.29992422867746]},"properties":{"mile":1985}},{"type":"Feature","geometry":{"type":"Point","coordinates":[-121.86842649912536,44.33735443856884]},"properties":{"mile":1990}},{"type":"Feature","geometry":{"type":"Point","coordinates":[-121.84956941507579,44.38904355519483]},"properties":{"mile":1995}},{"type":"Feature","geometry":{"type":"Point","coordinates":[-121.84414406119384,44.4386210301466]},"properties":{"mile":2000}},{"type":"Feature","geometry":{"type":"Point","coordinates":[-121.85270733234077,44.48671259721203]},"properties":{"mile":2005}},{"type":"Feature","geometry":{"type":"Point","coordinates":[-121.8109605106228,44.52810469228785]},"properties":{"mile":2010}},{"type":"Feature","geometry":{"type":"Point","coordinates":[-121.79858309686645,44.58351920493834]},"properties":{"mile":2015}},{"type":"Feature","geometry":{"type":"Point","coordinates":[-121.81526349652815,44.63275452540264]},"properties":{"mile":2020}},{"type":"Feature","geometry":{"type":"Point","coordinates":[-121.84904431771633,44.66225797745525]},"properties":{"mile":2025}},{"type":"Feature","geometry":{"type":"Point","coordinates":[-121.82450784756146,44.702198987982705]},"properties":{"mile":2030}},{"type":"Feature","geometry":{"type":"Point","coordinates":[-121.80083759086507,44.735006626042654]},"properties":{"mile":2035}},{"type":"Feature","geometry":{"type":"Point","coordinates":[-121.80138373409963,44.77873636748737]},"properties":{"mile":2040}},{"type":"Feature","geometry":{"type":"Point","coordinates":[-121.78988682807628,44.823529290881005]},"properties":{"mile":2045}},{"type":"Feature","geometry":{"type":"Point","coordinates":[-121.75516723035682,44.8717274056285]},"properties":{"mile":2050}},{"type":"Feature","geometry":{"type":"Point","coordinates":[-121.7420775885887,44.92111040739282]},"properties":{"mile":2055}},{"type":"Feature","geometry":{"type":"Point","coordinates":[-121.73026366215282,44.96975450542941]},"properties":{"mile":2060}},{"type":"Feature","geometry":{"type":"Point","coordinates":[-121.71402339850694,45.023558066829644]},"properties":{"mile":2065}},{"type":"Feature","geometry":{"type":"Point","coordinates":[-121.72644661981563,45.08213310574099]},"properties":{"mile":2070}},{"type":"Feature","geometry":{"type":"Point","coordinates":[-121.77529048245424,45.12559172280493]},"properties":{"mile":2075}},{"type":"Feature","geometry":{"type":"Point","coordinates":[-121.75945122144209,45.179300126616134]},"properties":{"mile":2080}},{"type":"Feature","geometry":{"type":"Point","coordinates":[-121.70407695814488,45.228171065488354]},"properties":{"mile":2085}},{"type":"Feature","geometry":{"type":"Point","coordinates":[-121.68598878481403,45.280754369043926]},"properties":{"mile":2090}},{"type":"Feature","geometry":{"type":"Point","coordinates":[-121.70319856812678,45.33083102386705]},"properties":{"mile":2095}},{"type":"Feature","geometry":{"type":"Point","coordinates":[-121.75512679827365,45.34530755582342]},"properties":{"mile":2100}},{"type":"Feature","geometry":{"type":"Point","coordinates":[-121.77957962422163,45.37528636473014]},"properties":{"mile":2105}},{"type":"Feature","geometry":{"type":"Point","coordinates":[-121.778422500882,45.40533061947084]},"properties":{"mile":2110}},{"type":"Feature","geometry":{"type":"Point","coordinates":[-121.80366494923844,45.451467073774246]},"properties":{"mile":2115}},{"type":"Feature","geometry":{"type":"Point","coordinates":[-121.86014150988164,45.49023625981709]},"properties":{"mile":2120}},{"type":"Feature","geometry":{"type":"Point","coordinates":[-121.83644571364103,45.545673270657645]},"properties":{"mile":2125}},{"type":"Feature","geometry":{"type":"Point","coordinates":[-121.7929490632094,45.586287946794194]},"properties":{"mile":2130}},{"type":"Feature","geometry":{"type":"Point","coordinates":[-121.84012941267108,45.627867686795305]},"properties":{"mile":2135}},{"type":"Feature","geometry":{"type":"Point","coordinates":[-121.82920779173558,45.67030504687417]},"properties":{"mile":2140}},{"type":"Feature","geometry":{"type":"Point","coordinates":[-121.89139582886476,45.66127637917866]},"properties":{"mile":2145}},{"type":"Feature","geometry":{"type":"Point","coordinates":[-121.95499417210291,45.66876848787008]},"properties":{"mile":2150}},{"type":"Feature","geometry":{"type":"Point","coordinates":[-121.98923828384392,45.6949054076422]},"properties":{"mile":2155}},{"type":"Feature","geometry":{"type":"Point","coordinates":[-122.0325994207128,45.73553637747684]},"properties":{"mile":2160}},{"type":"Feature","geometry":{"type":"Point","coordinates":[-122.03491672098377,45.765757927456086]},"properties":{"mile":2165}},{"type":"Feature","geometry":{"type":"Point","coordinates":[-122.00255866853182,45.792674751247546]},"properties":{"mile":2170}},{"type":"Feature","geometry":{"type":"Point","coordinates":[-121.9592838446395,45.81167053565242]},"properties":{"mile":2175}},{"type":"Feature","geometry":{"type":"Point","coordinates":[-121.89039419596617,45.81950921821561]},"properties":{"mile":2180}},{"type":"Feature","geometry":{"type":"Point","coordinates":[-121.84494890676977,45.82876797983189]},"properties":{"mile":2185}},{"type":"Feature","geometry":{"type":"Point","coordinates":[-121.7863567462561,45.85043007652351]},"properties":{"mile":2190}},{"type":"Feature","geometry":{"type":"Point","coordinates":[-121.79579968354147,45.892846809552715]},"properties":{"mile":2195}},{"type":"Feature","geometry":{"type":"Point","coordinates":[-121.81355174118596,45.95042734461181]},"properties":{"mile":2200}},{"type":"Feature","geometry":{"type":"Point","coordinates":[-121.79614087331606,45.99840117681192]},"properties":{"mile":2205}},{"type":"Feature","geometry":{"type":"Point","coordinates":[-121.77437959511091,46.053730913877395]},"properties":{"mile":2210}},{"type":"Feature","geometry":{"type":"Point","coordinates":[-121.75466880666049,46.105647253268415]},"properties":{"mile":2215}},{"type":"Feature","geometry":{"type":"Point","coordinates":[-121.71218180356365,46.12674996129603]},"properties":{"mile":2220}},{"type":"Feature","geometry":{"type":"Point","coordinates":[-121.65022682711418,46.13309181997095]},"properties":{"mile":2225}},{"type":"Feature","geometry":{"type":"Point","coordinates":[-121.61594415645988,46.185743116314235]},"properties":{"mile":2230}},{"type":"Feature","geometry":{"type":"Point","coordinates":[-121.56582152025241,46.18917035149335]},"properties":{"mile":2235}},{"type":"Feature","geometry":{"type":"Point","coordinates":[-121.55128745212511,46.23515789502488]},"properties":{"mile":2240}},{"type":"Feature","geometry":{"type":"Point","coordinates":[-121.50775656009189,46.278197581738006]},"properties":{"mile":2245}},{"type":"Feature","geometry":{"type":"Point","coordinates":[-121.50735824669039,46.330386821766155]},"properties":{"mile":2250}},{"type":"Feature","geometry":{"type":"Point","coordinates":[-121.5004090806479,46.384727688056884]},"properties":{"mile":2255}},{"type":"Feature","geometry":{"type":"Point","coordinates":[-121.44124715081622,46.39162459932722]},"properties":{"mile":2260}},{"type":"Feature","geometry":{"type":"Point","coordinates":[-121.41062370820839,46.427543468763695]},"properties":{"mile":2265}},{"type":"Feature","geometry":{"type":"Point","coordinates":[-121.43352028576018,46.479600266941645]},"properties":{"mile":2270}},{"type":"Feature","geometry":{"type":"Point","coordinates":[-121.46194531571011,46.51410141294772]},"properties":{"mile":2275}},{"type":"Feature","geometry":{"type":"Point","coordinates":[-121.42363000340475,46.53892095398542]},"properties":{"mile":2280}},{"type":"Feature","geometry":{"type":"Point","coordinates":[-121.4017832268756,46.5751210464113]},"properties":{"mile":2285}},{"type":"Feature","geometry":{"type":"Point","coordinates":[-121.38666271641489,46.617790044943405]},"properties":{"mile":2290}},{"type":"Feature","geometry":{"type":"Point","coordinates":[-121.40083900439008,46.65245693274546]},"properties":{"mile":2295}},{"type":"Feature","geometry":{"type":"Point","coordinates":[-121.38731792582901,46.69774289624447]},"properties":{"mile":2300}},{"type":"Feature","geometry":{"type":"Point","coordinates":[-121.41049328052101,46.740252749148354]},"properties":{"mile":2305}},{"type":"Feature","geometry":{"type":"Point","coordinates":[-121.43473196822646,46.77345579768348]},"properties":{"mile":2310}},{"type":"Feature","geometry":{"type":"Point","coordinates":[-121.46394698846233,46.811022767171636]},"properties":{"mile":2315}},{"type":"Feature","geometry":{"type":"Point","coordinates":[-121.49551985230002,46.86024180985965]},"properties":{"mile":2320}},{"type":"Feature","geometry":{"type":"Point","coordinates":[-121.49624348967076,46.89902049039998]},"properties":{"mile":2325}},{"type":"Feature","geometry":{"type":"Point","coordinates":[-121.45178260645211,46.931917065516714]},"properties":{"mile":2330}},{"type":"Feature","geometry":{"type":"Point","coordinates":[-121.4258980972728,46.98480768629176]},"properties":{"mile":2335}},{"type":"Feature","geometry":{"type":"Point","coordinates":[-121.3972945326232,47.034600759950955]},"properties":{"mile":2340}},{"type":"Feature","geometry":{"type":"Point","coordinates":[-121.39153810099022,47.084729390197104]},"properties":{"mile":2345}},{"type":"Feature","geometry":{"type":"Point","coordinates":[-121.3906080843615,47.12891370432052]},"properties":{"mile":2350}},{"type":"Feature","geometry":{"type":"Point","coordinates":[-121.31453150119894,47.1325156500404]},"properties":{"mile":2355}},{"type":"Feature","geometry":{"type":"Point","coordinates":[-121.30877319718338,47.18071447057907]},"properties":{"mile":2360}},{"type":"Feature","geometry":{"type":"Point","coordinates":[-121.33782980592451,47.214926051201935]},"properties":{"mile":2365}},{"type":"Feature","geometry":{"type":"Point","coordinates":[-121.33741339670117,47.252104988403296]},"properties":{"mile":2370}},{"type":"Feature","geometry":{"type":"Point","coordinates":[-121.37490337357147,47.29062659744237]},"properties":{"mile":2375}},{"type":"Feature","geometry":{"type":"Point","coordinates":[-121.43107795339614,47.31748180817735]},"properties":{"mile":2380}},{"type":"Feature","geometry":{"type":"Point","coordinates":[-121.45257497813401,47.35910467063534]},"properties":{"mile":2385}},{"type":"Feature","geometry":{"type":"Point","coordinates":[-121.4267159887441,47.41400560687381]},"properties":{"mile":2390}},{"type":"Feature","geometry":{"type":"Point","coordinates":[-121.39424371923094,47.43569059189304]},"properties":{"mile":2395}},{"type":"Feature","geometry":{"type":"Point","coordinates":[-121.34487503731614,47.46308524609838]},"properties":{"mile":2400}},{"type":"Feature","geometry":{"type":"Point","coordinates":[-121.30566655681832,47.45645756813781]},"properties":{"mile":2405}},{"type":"Feature","geometry":{"type":"Point","coordinates":[-121.26821281099876,47.46057371556222]},"properties":{"mile":2410}},{"type":"Feature","geometry":{"type":"Point","coordinates":[-121.25167700354353,47.49007202601632]},"properties":{"mile":2415}},{"type":"Feature","geometry":{"type":"Point","coordinates":[-121.22951247537264,47.50265391791286]},"properties":{"mile":2420}},{"type":"Feature","geometry":{"type":"Point","coordinates":[-121.20762382829648,47.50875197094042]},"properties":{"mile":2425}},{"type":"Feature","geometry":{"type":"Point","coordinates":[-121.14466557550361,47.51348865070442]},"properties":{"mile":2430}},{"type":"Feature","geometry":{"type":"Point","coordinates":[-121.13284380160282,47.548012464528526]},"properties":{"mile":2435}},{"type":"Feature","geometry":{"type":"Point","coordinates":[-121.14433186918217,47.58470896252902]},"properties":{"mile":2440}},{"type":"Feature","geometry":{"type":"Point","coordinates":[-121.1472485474065,47.636249205887836]},"properties":{"mile":2445}},{"type":"Feature","geometry":{"type":"Point","coordinates":[-121.13201307873764,47.67301145512083]},"properties":{"mile":2450}},{"type":"Feature","geometry":{"type":"Point","coordinates":[-121.08502424871307,47.703900388986604]},"properties":{"mile":2455}},{"type":"Feature","geometry":{"type":"Point","coordinates":[-121.08141900981084,47.73345749299126]},"properties":{"mile":2460}},{"type":"Feature","geometry":{"type":"Point","coordinates":[-121.09556543549574,47.772506881444514]},"properties":{"mile":2465}},{"type":"Feature","geometry":{"type":"Point","coordinates":[-121.08768383228923,47.80742636609559]},"properties":{"mile":2470}},{"type":"Feature","geometry":{"type":"Point","coordinates":[-121.133261414683,47.84009027862015]},"properties":{"mile":2475}},{"type":"Feature","geometry":{"type":"Point","coordinates":[-121.15761599484522,47.87842203118556]},"properties":{"mile":2480}},{"type":"Feature","geometry":{"type":"Point","coordinates":[-121.1761905271042,47.914438302997546]},"properties":{"mile":2485}},{"type":"Feature","geometry":{"type":"Point","coordinates":[-121.16185527457507,47.943356536918294]},"properties":{"mile":2490}},{"type":"Feature","geometry":{"type":"Point","coordinates":[-121.12486446036723,47.98580394139417]},"properties":{"mile":2495}},{"type":"Feature","geometry":{"type":"Point","coordinates":[-121.14784209219044,48.03206539169346]},"properties":{"mile":2500}},{"type":"Feature","geometry":{"type":"Point","coordinates":[-121.15684333183565,48.06941969944413]},"properties":{"mile":2505}},{"type":"Feature","geometry":{"type":"Point","coordinates":[-121.17417230437148,48.12047104080551]},"properties":{"mile":2510}},{"type":"Feature","geometry":{"type":"Point","coordinates":[-121.16814,48.14482689227648]},"properties":{"mile":2515}},{"type":"Feature","geometry":{"type":"Point","coordinates":[-121.15177904614288,48.167040915704874]},"properties":{"mile":2520}},{"type":"Feature","geometry":{"type":"Point","coordinates":[-121.13172114021512,48.16837979728213]},"properties":{"mile":2525}},{"type":"Feature","geometry":{"type":"Point","coordinates":[-121.09877192038721,48.16257378798508]},"properties":{"mile":2530}},{"type":"Feature","geometry":{"type":"Point","coordinates":[-121.0587468589472,48.181022809960766]},"properties":{"mile":2535}},{"type":"Feature","geometry":{"type":"Point","coordinates":[-121.06684737114914,48.20383175314118]},"properties":{"mile":2540}},{"type":"Feature","geometry":{"type":"Point","coordinates":[-121.00476774596609,48.187274651892686]},"properties":{"mile":2545}},{"type":"Feature","geometry":{"type":"Point","coordinates":[-120.94154491323103,48.19982869693658]},"properties":{"mile":2550}},{"type":"Feature","geometry":{"type":"Point","coordinates":[-120.95722025808841,48.24227390710929]},"properties":{"mile":2555}},{"type":"Feature","geometry":{"type":"Point","coordinates":[-120.9314420337851,48.288564832556325]},"properties":{"mile":2560}},{"type":"Feature","geometry":{"type":"Point","coordinates":[-120.90134362364009,48.34613580194839]},"properties":{"mile":2565}},{"type":"Feature","geometry":{"type":"Point","coordinates":[-120.83785194618196,48.37997865931589]},"properties":{"mile":2570}},{"type":"Feature","geometry":{"type":"Point","coordinates":[-120.8702690753393,48.43102886482961]},"properties":{"mile":2575}},{"type":"Feature","geometry":{"type":"Point","coordinates":[-120.80894050269964,48.46229559824403]},"properties":{"mile":2580}},{"type":"Feature","geometry":{"type":"Point","coordinates":[-120.7115551829746,48.47336400216357]},"properties":{"mile":2585}},{"type":"Feature","geometry":{"type":"Point","coordinates":[-120.73221856127448,48.52455590846557]},"properties":{"mile":2590}},{"type":"Feature","geometry":{"type":"Point","coordinates":[-120.69214741066281,48.55863403298959]},"properties":{"mile":2595}},{"type":"Feature","geometry":{"type":"Point","coordinates":[-120.73350180842554,48.58421906945948]},"properties":{"mile":2600}},{"type":"Feature","geometry":{"type":"Point","coordinates":[-120.74963224573031,48.63144229279543]},"properties":{"mile":2605}},{"type":"Feature","geometry":{"type":"Point","coordinates":[-120.73211029270627,48.66272422753326]},"properties":{"mile":2610}},{"type":"Feature","geometry":{"type":"Point","coordinates":[-120.7051278268957,48.69160695042817]},"properties":{"mile":2615}},{"type":"Feature","geometry":{"type":"Point","coordinates":[-120.67128419973568,48.72161125721212]},"properties":{"mile":2620}},{"type":"Feature","geometry":{"type":"Point","coordinates":[-120.7115638533809,48.76907104299777]},"properties":{"mile":2625}},{"type":"Feature","geometry":{"type":"Point","coordinates":[-120.72955963800744,48.81045392911462]},"properties":{"mile":2630}},{"type":"Feature","geometry":{"type":"Point","coordinates":[-120.74922833407572,48.85489936408716]},"properties":{"mile":2635}},{"type":"Feature","geometry":{"type":"Point","coordinates":[-120.76969744332324,48.89084325455192]},"properties":{"mile":2640}},{"type":"Feature","geometry":{"type":"Point","coordinates":[-120.76504545712291,48.93629512826776]},"properties":{"mile":2645}},{"type":"Feature","geometry":{"type":"Point","coordinates":[-120.80073582760387,48.996113001920776]},"properties":{"mile":2650}}]}